start=new Date('2022-07-25T00:00:00.000Z').valueOf();
sats=[{"EPOCH":"2022-07-24T21:49:43.017024","BSTAR":"0.00021793000000","LAUNCH_DATE":"2021-04-29","GP_ID":"208798162","TLE_LINE1":"1 48335U 21036BM  22205.90952566  .00002967  00000-0  21793-3 0  9997","SEMIMAJOR_AXIS":"6925.327","PERIAPSIS":"546.304","TLE_LINE2":"2 48335  53.0531 284.3121 0001282  82.0232 278.0903 15.06406979 68519","PERIOD":"95.592","MEAN_MOTION":"15.06406979","INCLINATION":"53.0531","TIME_SYSTEM":"UTC","FILE":"3521124","MEAN_MOTION_DDOT":"0.0000000000000","MEAN_ELEMENT_THEORY":"SGP4","CENTER_NAME":"EARTH","OBJECT_TYPE":"PAYLOAD","SITE":"AFETR","REV_AT_EPOCH":"6851","NORAD_CAT_ID":"48335","ECCENTRICITY":"0.00012820","OBJECT_NAME":"STARLINK-2441","APOAPSIS":"548.080","COUNTRY_CODE":"US","MEAN_MOTION_DOT":"0.00002967","MEAN_ANOMALY":"278.0903","RCS_SIZE":"LARGE","REF_FRAME":"TEME","ARG_OF_PERICENTER":"82.0232","DECAY_DATE":null,"EPHEMERIS_TYPE":"0","RA_OF_ASC_NODE":"284.3121","ELEMENT_SET_NO":"999","CLASSIFICATION_TYPE":"U","OBJECT_ID":"2021-036BM"},{"BSTAR":"0.00009669200000","LAUNCH_DATE":"2021-05-04","EPOCH":"2022-07-24T17:11:02.909760","SEMIMAJOR_AXIS":"6925.346","TLE_LINE1":"1 48353U 21038A   22205.71600590  .00001159  00000-0  96692-4 0  9998","GP_ID":"208797914","PERIAPSIS":"545.867","INCLINATION":"53.0534","MEAN_MOTION":"15.06400918","TLE_LINE2":"2 48353  53.0534 185.1778 0001940  56.2063 303.9110 15.06400918 67473","PERIOD":"95.592","TIME_SYSTEM":"UTC","MEAN_MOTION_DDOT":"0.0000000000000","FILE":"3521124","CENTER_NAME":"EARTH","OBJECT_TYPE":"PAYLOAD","MEAN_ELEMENT_THEORY":"SGP4","REV_AT_EPOCH":"6747","SITE":"AFETR","NORAD_CAT_ID":"48353","ECCENTRICITY":"0.00019400","OBJECT_NAME":"STARLINK-2613","COUNTRY_CODE":"US","APOAPSIS":"548.554","RCS_SIZE":"LARGE","REF_FRAME":"TEME","MEAN_MOTION_DOT":"0.00001159","MEAN_ANOMALY":"303.9110","DECAY_DATE":null,"ARG_OF_PERICENTER":"56.2063","RA_OF_ASC_NODE":"185.1778","EPHEMERIS_TYPE":"0","OBJECT_ID":"2021-038A","ELEMENT_SET_NO":"999","CLASSIFICATION_TYPE":"U"},{"MEAN_ELEMENT_THEORY":"SGP4","CENTER_NAME":"EARTH","OBJECT_TYPE":"PAYLOAD","SITE":"AFETR","REV_AT_EPOCH":"6750","TIME_SYSTEM":"UTC","FILE":"3521124","MEAN_MOTION_DDOT":"0.0000000000000","PERIAPSIS":"546.126","PERIOD":"95.592","TLE_LINE2":"2 48354  53.0529 184.3060 0001576  63.3710 296.7440 15.06398620 67501","INCLINATION":"53.0529","MEAN_MOTION":"15.06398620","EPOCH":"2022-07-24T21:52:21.454752","LAUNCH_DATE":"2021-05-04","BSTAR":"0.00003714500000","GP_ID":"208799165","TLE_LINE1":"1 48354U 21038B   22205.91135943  .00000272  00000-0  37145-4 0  9999","SEMIMAJOR_AXIS":"6925.353","EPHEMERIS_TYPE":"0","RA_OF_ASC_NODE":"184.3060","CLASSIFICATION_TYPE":"U","ELEMENT_SET_NO":"999","OBJECT_ID":"2021-038B","MEAN_ANOMALY":"296.7440","MEAN_MOTION_DOT":"0.00000272","REF_FRAME":"TEME","RCS_SIZE":"LARGE","ARG_OF_PERICENTER":"63.3710","DECAY_DATE":null,"OBJECT_NAME":"STARLINK-2674","APOAPSIS":"548.309","COUNTRY_CODE":"US","ECCENTRICITY":"0.00015760","NORAD_CAT_ID":"48354"},{"MEAN_ELEMENT_THEORY":"SGP4","OBJECT_TYPE":"PAYLOAD","CENTER_NAME":"EARTH","SITE":"AFETR","REV_AT_EPOCH":"6746","TIME_SYSTEM":"UTC","FILE":"3521124","MEAN_MOTION_DDOT":"0.0000000000000","PERIAPSIS":"546.116","PERIOD":"95.593","TLE_LINE2":"2 48355  53.0543 185.5028 0001615  63.9760 296.1395 15.06393076 67468","MEAN_MOTION":"15.06393076","INCLINATION":"53.0543","EPOCH":"2022-07-24T15:24:54.924768","LAUNCH_DATE":"2021-05-04","BSTAR":"0.00002743800000","GP_ID":"208798909","TLE_LINE1":"1 48355U 21038C   22205.64230237  .00000127  00000-0  27438-4 0  9995","SEMIMAJOR_AXIS":"6925.370","EPHEMERIS_TYPE":"0","RA_OF_ASC_NODE":"185.5028","CLASSIFICATION_TYPE":"U","ELEMENT_SET_NO":"999","OBJECT_ID":"2021-038C","MEAN_ANOMALY":"296.1395","MEAN_MOTION_DOT":"0.00000127","REF_FRAME":"TEME","RCS_SIZE":"LARGE","ARG_OF_PERICENTER":"63.9760","DECAY_DATE":null,"OBJECT_NAME":"STARLINK-2635","APOAPSIS":"548.353","COUNTRY_CODE":"US","ECCENTRICITY":"0.00016150","NORAD_CAT_ID":"48355"},{"OBJECT_ID":"2021-038D","CLASSIFICATION_TYPE":"U","ELEMENT_SET_NO":"999","RA_OF_ASC_NODE":"184.3199","EPHEMERIS_TYPE":"0","DECAY_DATE":null,"ARG_OF_PERICENTER":"64.7732","REF_FRAME":"TEME","RCS_SIZE":"LARGE","MEAN_ANOMALY":"295.3461","MEAN_MOTION_DOT":"-0.00000016","COUNTRY_CODE":"US","APOAPSIS":"548.591","OBJECT_NAME":"STARLINK-2637","ECCENTRICITY":"0.00019650","NORAD_CAT_ID":"48356","REV_AT_EPOCH":"6750","SITE":"AFETR","CENTER_NAME":"EARTH","OBJECT_TYPE":"PAYLOAD","MEAN_ELEMENT_THEORY":"SGP4","MEAN_MOTION_DDOT":"0.0000000000000","FILE":"3521124","TIME_SYSTEM":"UTC","INCLINATION":"53.0529","MEAN_MOTION":"15.06394528","PERIOD":"95.592","TLE_LINE2":"2 48356  53.0529 184.3199 0001965  64.7732 295.3461 15.06394528 67508","PERIAPSIS":"545.869","SEMIMAJOR_AXIS":"6925.365","TLE_LINE1":"1 48356U 21038D   22205.90400135 -.00000016  00000-0  17856-4 0  9992","GP_ID":"208798164","LAUNCH_DATE":"2021-05-04","BSTAR":"0.00001785600000","EPOCH":"2022-07-24T21:41:45.716640"},{"NORAD_CAT_ID":"48357","ECCENTRICITY":"0.00017350","OBJECT_NAME":"STARLINK-2636","APOAPSIS":"548.405","COUNTRY_CODE":"US","MEAN_MOTION_DOT":"0.00000026","MEAN_ANOMALY":"298.3666","RCS_SIZE":"LARGE","REF_FRAME":"TEME","ARG_OF_PERICENTER":"61.7497","DECAY_DATE":null,"EPHEMERIS_TYPE":"0","RA_OF_ASC_NODE":"184.3646","ELEMENT_SET_NO":"999","CLASSIFICATION_TYPE":"U","OBJECT_ID":"2021-038E","EPOCH":"2022-07-24T21:40:24.582720","BSTAR":"0.00002061800000","LAUNCH_DATE":"2021-05-04","GP_ID":"208798414","SEMIMAJOR_AXIS":"6925.339","TLE_LINE1":"1 48357U 21038E   22205.90306230  .00000026  00000-0  20618-4 0  9994","PERIAPSIS":"546.002","TLE_LINE2":"2 48357  53.0525 184.3646 0001735  61.7497 298.3666 15.06403143 67506","PERIOD":"95.592","INCLINATION":"53.0525","MEAN_MOTION":"15.06403143","TIME_SYSTEM":"UTC","FILE":"3521124","MEAN_MOTION_DDOT":"0.0000000000000","MEAN_ELEMENT_THEORY":"SGP4","CENTER_NAME":"EARTH","OBJECT_TYPE":"PAYLOAD","SITE":"AFETR","REV_AT_EPOCH":"6750"},{"TIME_SYSTEM":"UTC","FILE":"3520987","MEAN_MOTION_DDOT":"0.0000000000000","MEAN_ELEMENT_THEORY":"SGP4","OBJECT_TYPE":"PAYLOAD","CENTER_NAME":"EARTH","SITE":"AFETR","REV_AT_EPOCH":"6741","EPOCH":"2022-07-24T08:46:50.287584","BSTAR":"0.00002278600000","LAUNCH_DATE":"2021-05-04","GP_ID":"208770808","TLE_LINE1":"1 48358U 21038F   22205.36585981  .00000058  00000-0  22786-4 0  9990","SEMIMAJOR_AXIS":"6925.360","PERIAPSIS":"545.820","TLE_LINE2":"2 48358  53.0546 186.7349 0002029  53.9494 306.1683 15.06396270 67412","PERIOD":"95.592","INCLINATION":"53.0546","MEAN_MOTION":"15.06396270","MEAN_MOTION_DOT":"0.00000058","MEAN_ANOMALY":"306.1683","RCS_SIZE":"LARGE","REF_FRAME":"TEME","ARG_OF_PERICENTER":"53.9494","DECAY_DATE":null,"EPHEMERIS_TYPE":"0","RA_OF_ASC_NODE":"186.7349","ELEMENT_SET_NO":"999","CLASSIFICATION_TYPE":"U","OBJECT_ID":"2021-038F","NORAD_CAT_ID":"48358","ECCENTRICITY":"0.00020290","OBJECT_NAME":"STARLINK-2624","APOAPSIS":"548.630","COUNTRY_CODE":"US"},{"TIME_SYSTEM":"UTC","MEAN_MOTION_DDOT":"0.0000000000000","FILE":"3520987","OBJECT_TYPE":"PAYLOAD","CENTER_NAME":"EARTH","MEAN_ELEMENT_THEORY":"SGP4","REV_AT_EPOCH":"6741","SITE":"AFETR","LAUNCH_DATE":"2021-05-04","BSTAR":"0.00001748100000","EPOCH":"2022-07-24T08:41:31.183008","TLE_LINE1":"1 48359U 21038G   22205.36216647 -.00000021  00000-0  17481-4 0  9998","SEMIMAJOR_AXIS":"6925.363","GP_ID":"208770059","PERIAPSIS":"545.887","INCLINATION":"53.0539","MEAN_MOTION":"15.06395437","PERIOD":"95.592","TLE_LINE2":"2 48359  53.0539 186.7616 0001936  58.6235 301.4943 15.06395437 67414","REF_FRAME":"TEME","RCS_SIZE":"LARGE","MEAN_ANOMALY":"301.4943","MEAN_MOTION_DOT":"-0.00000021","DECAY_DATE":null,"ARG_OF_PERICENTER":"58.6235","RA_OF_ASC_NODE":"186.7616","EPHEMERIS_TYPE":"0","OBJECT_ID":"2021-038G","CLASSIFICATION_TYPE":"U","ELEMENT_SET_NO":"999","ECCENTRICITY":"0.00019360","NORAD_CAT_ID":"48359","OBJECT_NAME":"STARLINK-2628","COUNTRY_CODE":"US","APOAPSIS":"548.568"},{"INCLINATION":"53.0534","MEAN_MOTION":"15.06403334","PERIOD":"95.592","TLE_LINE2":"2 48360  53.0534 186.7859 0001889  63.7211 296.3971 15.06403334 67417","PERIAPSIS":"545.895","TLE_LINE1":"1 48360U 21038H   22205.35847453  .00001912  00000-0  14724-3 0  9999","SEMIMAJOR_AXIS":"6925.338","GP_ID":"208770309","LAUNCH_DATE":"2021-05-04","BSTAR":"0.00014724000000","EPOCH":"2022-07-24T08:36:12.199392","REV_AT_EPOCH":"6741","SITE":"AFETR","CENTER_NAME":"EARTH","OBJECT_TYPE":"PAYLOAD","MEAN_ELEMENT_THEORY":"SGP4","MEAN_MOTION_DDOT":"0.0000000000000","FILE":"3520987","TIME_SYSTEM":"UTC","COUNTRY_CODE":"US","APOAPSIS":"548.512","OBJECT_NAME":"STARLINK-2622","ECCENTRICITY":"0.00018890","NORAD_CAT_ID":"48360","OBJECT_ID":"2021-038H","CLASSIFICATION_TYPE":"U","ELEMENT_SET_NO":"999","RA_OF_ASC_NODE":"186.7859","EPHEMERIS_TYPE":"0","DECAY_DATE":null,"ARG_OF_PERICENTER":"63.7211","REF_FRAME":"TEME","RCS_SIZE":"LARGE","MEAN_ANOMALY":"296.3971","MEAN_MOTION_DOT":"0.00001912"},{"RCS_SIZE":"LARGE","REF_FRAME":"TEME","MEAN_MOTION_DOT":"-0.00000200","MEAN_ANOMALY":"289.5146","DECAY_DATE":null,"ARG_OF_PERICENTER":"70.6016","RA_OF_ASC_NODE":"184.7009","EPHEMERIS_TYPE":"0","OBJECT_ID":"2021-038J","ELEMENT_SET_NO":"999","CLASSIFICATION_TYPE":"U","NORAD_CAT_ID":"48361","ECCENTRICITY":"0.00015990","OBJECT_NAME":"STARLINK-2591","COUNTRY_CODE":"US","APOAPSIS":"548.346","TIME_SYSTEM":"UTC","MEAN_MOTION_DDOT":"0.0000000000000","FILE":"3521124","OBJECT_TYPE":"PAYLOAD","CENTER_NAME":"EARTH","MEAN_ELEMENT_THEORY":"SGP4","REV_AT_EPOCH":"6748","SITE":"AFETR","BSTAR":"0.00000546290000","LAUNCH_DATE":"2021-05-04","EPOCH":"2022-07-24T19:39:40.665024","TLE_LINE1":"1 48361U 21038J   22205.81922066 -.00000200  00000-0  54629-5 0  9995","SEMIMAJOR_AXIS":"6925.374","GP_ID":"208797915","PERIAPSIS":"546.132","INCLINATION":"53.0553","MEAN_MOTION":"15.06391698","TLE_LINE2":"2 48361  53.0553 184.7009 0001599  70.6016 289.5146 15.06391698 67486","PERIOD":"95.593"}];
